GEOSCAN 3 (RS92S3)      
1 64893U 25155T   26164.28243782  .00017693  00000+0  51810-3 0  9996
2 64893  97.4529 134.1140 0006165 172.7565 187.3768 15.35272854 80250
INNOSAT 3 (RS92S0)      
1 64894U 25155U   26164.22887407  .00037480  00000+0  83300-3 0  9994
2 64894  97.4477 135.6305 0005880 160.8779 199.2690 15.43567570 80358
KNACKSAT-2              
1 67683U 98067XZ  26163.67352989  .00051962  00000+0  64153-3 0  9991
2 67683  51.6304 317.1752 0009713 195.1323 164.9380 15.59578494 19571
