OBJECT_NAME,OBJECT_ID,EPOCH,MEAN_MOTION,ECCENTRICITY,INCLINATION,RA_OF_ASC_NODE,ARG_OF_PERICENTER,MEAN_ANOMALY,EPHEMERIS_TYPE,CLASSIFICATION_TYPE,NORAD_CAT_ID,ELEMENT_SET_NO,REV_AT_EPOCH,BSTAR,MEAN_MOTION_DOT,MEAN_MOTION_DDOT
GEOSCAN 3 (RS92S3),2025-155T,2026-06-13T06:46:42.627648,15.35272854,.00061657,97.4529,134.1140,172.7565,187.3768,0,U,64893,999,8025,.51809716E-3,.17693E-3,0
INNOSAT 3 (RS92S0),2025-155U,2026-06-13T05:29:34.719648,15.43567570,.00058809,97.4477,135.6305,160.8779,199.2690,0,U,64894,999,8035,.83299954E-3,.3748E-3,0
KNACKSAT-2,1998-067XZ,2026-06-12T16:09:52.982496,15.59578494,.00097136,51.6304,317.1752,195.1323,164.9380,0,U,67683,999,1957,.64153287E-3,.51962E-3,0
